[{"OBJECT_NAME":"AAC-HSI-SAT3","OBJECT_ID":"2023-174DH","EPOCH":"2026-03-09T23:15:51.401952","MEAN_MOTION":15.15239914,"ECCENTRICITY":0.00104695,"INCLINATION":97.3525,"RA_OF_ASC_NODE":131.622,"ARG_OF_PERICENTER":2.3661,"MEAN_ANOMALY":357.7619,"EPHEMERIS_TYPE":0,"CLASSIFICATION_TYPE":"U","NORAD_CAT_ID":58848,"ELEMENT_SET_NO":999,"REV_AT_EPOCH":12887,"BSTAR":0.00020496498,"MEAN_MOTION_DOT":3.793e-5,"MEAN_MOTION_DDOT":0},{"OBJECT_NAME":"LEMUR-2-TILLINFINITY","OBJECT_ID":"2025-061F","EPOCH":"2026-03-09T21:40:30.357696","MEAN_MOTION":15.139452,"ECCENTRICITY":0.00168906,"INCLINATION":97.5532,"RA_OF_ASC_NODE":45.5587,"ARG_OF_PERICENTER":226.702,"MEAN_ANOMALY":133.2804,"EPHEMERIS_TYPE":0,"CLASSIFICATION_TYPE":"U","NORAD_CAT_ID":63356,"ELEMENT_SET_NO":999,"REV_AT_EPOCH":5261,"BSTAR":0.00030453504,"MEAN_MOTION_DOT":5.472e-5,"MEAN_MOTION_DDOT":0}]
